[{"OBJECT_NAME":"STARLINK-5886","OBJECT_ID":"2023-058AK","EPOCH":"2026-03-09T23:38:35.364192","MEAN_MOTION":15.05648558,"ECCENTRICITY":0.00023097,"INCLINATION":97.6046,"RA_OF_ASC_NODE":71.5502,"ARG_OF_PERICENTER":89.8875,"MEAN_ANOMALY":270.2617,"EPHEMERIS_TYPE":0,"CLASSIFICATION_TYPE":"U","NORAD_CAT_ID":56350,"ELEMENT_SET_NO":999,"REV_AT_EPOCH":15824,"BSTAR":9.494342e-6,"MEAN_MOTION_DOT":7.6e-7,"MEAN_MOTION_DDOT":0},{"OBJECT_NAME":"HINCUBE","OBJECT_ID":"2013-066AF","EPOCH":"2026-03-09T20:37:05.272320","MEAN_MOTION":15.06793635,"ECCENTRICITY":0.00336438,"INCLINATION":97.7872,"RA_OF_ASC_NODE":36.0584,"ARG_OF_PERICENTER":185.5277,"MEAN_ANOMALY":174.5583,"EPHEMERIS_TYPE":0,"CLASSIFICATION_TYPE":"U","NORAD_CAT_ID":39445,"ELEMENT_SET_NO":999,"REV_AT_EPOCH":66456,"BSTAR":0.00067193541,"MEAN_MOTION_DOT":0.00010075,"MEAN_MOTION_DDOT":0}]
